NORAD_CAT_ID,OBJECT_NAME,OBJECT_TYPE,EPOCH,MEAN_MOTION,ECCENTRICITY,INCLINATION,RA_OF_ASC_NODE,ARG_OF_PERICENTER,MEAN_ANOMALY,BSTAR,MEAN_MOTION_DOT,MEAN_MOTION_DDOT,TLE_LINE0,TLE_LINE1,TLE_LINE2,SEMIMAJOR_AXIS,PERIOD,APOGEE,PERIGEE,DECAYED
55658.0,STARLINK-5307,PAYLOAD,2024-05-09 21:13:12,14.98327282,0.0002914,69.9998,70.6383,267.2622,92.8204,0.00011013,1.221e-05,0.0,0 STARLINK-5307,1 55658U 23021AG  24130.88417393  .00001221  00000-0  11013-3 0  9995,2 55658  69.9998  70.6383 0002914 267.2622  92.8204 14.98327282 68310,6950.201,96.107,574.092,570.041,0.0
55658.0,STARLINK-5307,PAYLOAD,2024-05-09 22:49:20,14.98327193,0.0002871,69.9998,70.4699,267.3753,92.7078,9.8186e-05,1.079e-05,0.0,0 STARLINK-5307,1 55658U 23021AG  24130.95093448  .00001079  00000-0  98186-4 0  9992,2 55658  69.9998  70.4699 0002871 267.3753  92.7078 14.98327193 68629,6950.202,96.107,574.062,570.071,0.0
55658.0,STARLINK-5307,PAYLOAD,2024-05-10 13:14:33,14.98342567,0.0002595,70.0016,68.9532,274.1014,85.9849,-0.00020424,-2.53e-05,0.0,0 STARLINK-5307,1 55658U 23021AG  24131.55177222 -.00002530  00000-0 -20424-3 0  9996,2 55658  70.0016  68.9532 0002595 274.1014  85.9849 14.98342567 68712,6950.154,96.106,573.823,570.215,0.0
55658.0,STARLINK-5307,PAYLOAD,2024-05-10 21:15:13,14.9831486,0.0002555,70.0013,68.1111,266.9724,93.1143,0.00032231,3.753e-05,0.0,0 STARLINK-5307,1 55658U 23021AG  24131.88557681  .00003753  00000-0  32231-3 0  9998,2 55658  70.0013  68.1111 0002555 266.9724  93.1143 14.98314860 68462,6950.24,96.108,573.88,570.329,0.0
55658.0,STARLINK-5307,PAYLOAD,2024-05-10 22:51:21,14.98329532,0.0002526,70.0016,67.9458,263.5219,96.5653,3.6385e-05,3.41e-06,0.0,0 STARLINK-5307,1 55658U 23021AG  24131.95233638  .00000341  00000-0  36385-4 0  9994,2 55658  70.0016  67.9458 0002526 263.5219  96.5653 14.98329532 68775,6950.194,96.107,573.815,570.304,0.0
55658.0,STARLINK-5307,PAYLOAD,2024-05-11 05:15:51,14.98365146,0.0002118,70.0015,67.2722,281.8468,78.2453,0.0004721,5.549e-05,0.0,0 STARLINK-5307,1 55658U 23021AG  24132.21934586  .00005549  00000-0  47210-3 0  9997,2 55658  70.0015  67.2722 0002118 281.8468  78.2453 14.98365146 68515,6950.084,96.105,573.421,570.477,0.0
55658.0,STARLINK-5307,PAYLOAD,2024-05-11 13:16:32,14.98353055,0.0002254,70.0026,66.4314,289.0078,71.0837,0.00029437,3.423e-05,0.0,0 STARLINK-5307,1 55658U 23021AG  24132.55315250  .00003423  00000-0  29437-3 0  9995,2 55658  70.0026  66.4314 0002254 289.0078  71.0837 14.98353055 68561,6950.122,96.106,573.553,570.42,0.0
55658.0,STARLINK-5307,PAYLOAD,2024-05-11 21:17:14,14.98327994,0.0002961,70.0017,65.5887,277.2016,82.8807,3.4433e-05,3.18e-06,0.0,0 STARLINK-5307,1 55658U 23021AG  24132.88696920  .00000318  00000-0  34433-4 0  9990,2 55658  70.0017  65.5887 0002961 277.2016  82.8807 14.98327994 68618,6950.199,96.107,574.122,570.006,0.0
55658.0,STARLINK-5307,PAYLOAD,2024-05-11 22:53:26,14.98268629,0.0002613,70.0011,65.4221,275.0663,85.0198,-0.00067062,-8.073e-05,0.0,0 STARLINK-5307,1 55658U 23021AG  24132.95378245 -.00008073  00000-0 -67062-3 0  9996,2 55658  70.0011  65.4221 0002613 275.0663  85.0198 14.98268629 68922,6950.383,96.111,574.064,570.432,0.0
55658.0,STARLINK-5307,PAYLOAD,2024-05-12 05:18:00,14.98255612,0.000269,70.0008,64.7482,260.7032,99.3823,-0.00081208,-9.75e-05,0.0,0 STARLINK-5307,1 55658U 23021AG  24133.22084264 -.00009750  00000-0 -81208-3 0  9993,2 55658  70.0008  64.7482 0002690 260.7032  99.3823 14.98255612 68667,6950.423,96.112,574.158,570.418,0.0
55658.0,STARLINK-5307,PAYLOAD,2024-05-12 13:18:40,14.98273411,0.0002615,70.0033,63.906,269.6138,90.4721,-0.00051577,-6.232e-05,0.0,0 STARLINK-5307,1 55658U 23021AG  24133.55463668 -.00006232  00000-0 -51577-3 0  9996,2 55658  70.0033  63.9060 0002615 269.6138  90.4721 14.98273411 68712,6950.368,96.111,574.05,570.415,0.0
55658.0,STARLINK-5307,PAYLOAD,2024-05-12 21:19:18,14.98307545,0.0002772,70.0027,63.0653,273.4186,86.6656,-0.00010597,-1.356e-05,0.0,0 STARLINK-5307,1 55658U 23021AG  24133.88841309 -.00001356  00000-0 -10597-3 0  9993,2 55658  70.0027  63.0653 0002772 273.4186  86.6656 14.98307545 68769,6950.262,96.108,574.054,570.201,0.0
55658.0,STARLINK-5307,PAYLOAD,2024-05-12 22:55:26,14.98308845,0.000271,70.0026,62.897,273.717,86.3679,-8.5719e-05,-1.115e-05,0.0,0 STARLINK-5307,1 55658U 23021AG  24133.95517305 -.00001115  00000-0 -85719-4 0  9999,2 55658  70.0026  62.8970 0002710 273.7170  86.3679 14.98308845 69076,6950.258,96.108,574.007,570.24,0.0
55658.0,STARLINK-5307,PAYLOAD,2024-05-13 05:19:58,14.98319216,0.0002605,70.0009,62.2239,247.9627,112.1256,-9.8062e-05,-1.262e-05,0.0,0 STARLINK-5307,1 55658U 23021AG  24134.22220833 -.00001262  00000-0 -98062-4 0  9995,2 55658  70.0009  62.2239 0002605 247.9627 112.1256 14.98319216 68816,6950.226,96.108,573.902,570.281,0.0
55658.0,STARLINK-5307,PAYLOAD,2024-05-13 18:09:02,14.98319489,0.000345,70.0007,60.875,268.1206,91.9558,0.00018551,2.121e-05,0.0,0 STARLINK-5307,1 55658U 23021AG  24134.75628164  .00002121  00000-0  18551-3 0  9999,2 55658  70.0007  60.8750 0003450 268.1206  91.9558 14.98319489 69196,6950.225,96.108,574.488,569.693,0.0
55658.0,STARLINK-5307,PAYLOAD,2024-05-14 03:45:50,14.98333019,0.0002398,70.0018,59.8666,269.6951,90.3933,0.00029955,3.483e-05,0.0,0 STARLINK-5307,1 55658U 23021AG  24135.15683437  .00003483  00000-0  29955-3 0  9990,2 55658  70.0018  59.8666 0002398 269.6951  90.3933 14.98333019 68953,6950.184,96.107,573.715,570.382,0.0
55658.0,STARLINK-5307,PAYLOAD,2024-05-14 11:46:30,14.98317425,0.0003144,69.9996,59.0235,267.249,92.831,0.00096131,0.00011392,0.0,0 STARLINK-5307,1 55658U 23021AG  24135.49063477  .00011392  00000-0  96131-3 0  9991,2 55658  69.9996  59.0235 0003144 267.2490  92.8310 14.98317425 69007,6950.232,96.108,574.282,569.912,0.0
55658.0,STARLINK-5307,PAYLOAD,2024-05-14 21:23:18,14.9835154,0.0002881,70.0,58.0129,265.8881,94.1948,0.00041331,4.845e-05,0.0,0 STARLINK-5307,1 55658U 23021AG  24135.89118479  .00004845  00000-0  41331-3 0  9995,2 55658  70.0000  58.0129 0002881 265.8881  94.1948 14.98351540 69066,6950.126,96.106,573.994,569.989,0.0
55658.0,STARLINK-5307,PAYLOAD,2024-05-14 22:59:26,14.98354986,0.0002723,69.9997,57.8444,267.1354,92.9493,0.00038218,4.473e-05,0.0,0 STARLINK-5307,1 55658U 23021AG  24135.95794267  .00004473  00000-0  38218-3 0  9994,2 55658  69.9997  57.8444 0002723 267.1354  92.9493 14.98354986 69372,6950.116,96.105,573.873,570.088,0.0
55658.0,STARLINK-5307,PAYLOAD,2024-05-15 05:23:57,14.98360853,0.000249,70.0013,57.1713,268.0165,92.0709,0.00052488,6.18e-05,0.0,0 STARLINK-5307,1 55658U 23021AG  24136.22497437  .00006180  00000-0  52488-3 0  9996,2 55658  70.0013  57.1713 0002490 268.0165  92.0709 14.98360853 69110,6950.097,96.105,573.693,570.232,0.0
55658.0,STARLINK-5307,PAYLOAD,2024-05-15 21:25:18,14.98357212,0.0002825,70.0002,55.4866,238.3676,121.7208,-1.1062e-05,-2.25e-06,0.0,0 STARLINK-5307,1 55658U 23021AG  24136.89257537 -.00000225  00000-0 -11062-4 0  9994,2 55658  70.0002  55.4866 0002825 238.3676 121.7208 14.98357212 69217,6950.109,96.105,573.937,570.01,0.0
55658.0,STARLINK-5307,PAYLOAD,2024-05-15 23:01:26,14.98354673,0.0002689,70.0019,55.3194,229.205,130.8876,1.9454e-06,-7e-07,0.0,0 STARLINK-5307,1 55658U 23021AG  24136.95933561 -.00000070  00000-0  19454-5 0  9990,2 55658  70.0019  55.3194 0002689 229.2050 130.8876 14.98354673 69525,6950.117,96.105,573.85,570.113,0.0
55658.0,STARLINK-5307,PAYLOAD,2024-05-16 11:50:30,14.98358391,0.000271,70.0013,53.9722,273.7766,86.3083,-1.6831e-05,-2.94e-06,0.0,0 STARLINK-5307,1 55658U 23021AG  24137.49340653 -.00000294  00000-0 -16831-4 0  9998,2 55658  70.0013  53.9722 0002710 273.7766  86.3083 14.98358391 69608,6950.105,96.105,573.854,570.087,0.0
55658.0,STARLINK-5307,PAYLOAD,2024-05-17 03:51:48,14.98370402,0.0002633,70.0028,52.2901,270.1997,89.886,0.00016915,1.928e-05,0.0,0 STARLINK-5307,1 55658U 23021AG  24138.16098219  .00001928  00000-0  16915-3 0  9996,2 55658  70.0028  52.2901 0002633 270.1997  89.8860 14.98370402 69402,6950.068,96.104,573.763,570.103,0.0
55658.0,STARLINK-5307,PAYLOAD,2024-05-17 11:52:31,14.98317791,0.0002542,70.0033,51.4482,267.2175,92.8694,-0.00073114,-8.803e-05,0.0,0 STARLINK-5307,1 55658U 23021AG  24138.49480908 -.00008803  00000-0 -73114-3 0  9997,2 55658  70.0033  51.4482 0002542 267.2175  92.8694 14.98317791 69453,6950.231,96.108,573.862,570.329,0.0
55658.0,STARLINK-5307,PAYLOAD,2024-05-17 21:29:20,14.9831309,0.0002901,70.002,50.4385,266.0994,93.9833,-0.00041768,-5.071e-05,0.0,0 STARLINK-5307,1 55658U 23021AG  24138.89537442 -.00005071  00000-0 -41768-3 0  9991,2 55658  70.0020  50.4385 0002901 266.0994  93.9833 14.98313090 69810,6950.245,96.108,574.126,570.094,0.0
55658.0,STARLINK-5307,PAYLOAD,2024-05-18 03:53:52,14.98325743,0.0002687,70.0025,49.7649,266.5659,93.5193,-4.2102e-05,-5.95e-06,0.0,0 STARLINK-5307,1 55658U 23021AG  24139.16240767 -.00000595  00000-0 -42102-4 0  9993,2 55658  70.0025  49.7649 0002687 266.5659  93.5193 14.98325743 69557,6950.206,96.107,573.939,570.204,0.0
55658.0,STARLINK-5307,PAYLOAD,2024-05-18 11:54:32,14.98335081,0.000275,70.0027,48.9234,267.9921,92.0923,0.00086172,0.00010205,0.0,0 STARLINK-5307,1 55658U 23021AG  24139.49620761  .00010205  00000-0  86172-3 0  9996,2 55658  70.0027  48.9234 0002750 267.9921  92.0923 14.98335081 69908,6950.177,96.107,573.953,570.131,0.0
55658.0,STARLINK-5307,PAYLOAD,2024-05-18 21:31:20,14.98357645,0.0002808,70.0026,47.9133,266.492,93.5918,0.0017645,0.00021039,0.0,0 STARLINK-5307,1 55658U 23021AG  24139.89676461  .00021039  00000-0  17645-2 0  9993,2 55658  70.0026  47.9133 0002808 266.4920  93.5918 14.98357645 69664,6950.107,96.105,573.924,570.021,0.0
55658.0,STARLINK-5307,PAYLOAD,2024-05-19 03:55:52,14.98367587,0.0002893,70.0027,47.2408,268.4952,91.5876,0.001483,0.00017664,0.0,0 STARLINK-5307,1 55658U 23021AG  24140.16379831  .00017664  00000-0  14830-2 0  9998,2 55658  70.0027  47.2408 0002893 268.4952  91.5876 14.98367587 70001,6950.077,96.105,573.952,569.931,0.0
